NORAD_CAT_ID,OBJECT_NAME,OBJECT_TYPE,EPOCH,MEAN_MOTION,ECCENTRICITY,INCLINATION,RA_OF_ASC_NODE,ARG_OF_PERICENTER,MEAN_ANOMALY,BSTAR,MEAN_MOTION_DOT,MEAN_MOTION_DDOT,TLE_LINE0,TLE_LINE1,TLE_LINE2,SEMIMAJOR_AXIS,PERIOD,APOGEE,PERIGEE,DECAYED
52383.0,STARLINK-3811,PAYLOAD,2024-01-19 04:19:39,15.08846237,0.0001716,53.2178,82.9942,87.6533,272.4655,9.1305e-05,1.166e-05,0.0,0 STARLINK-3811,1 52383U 22045BE  24019.18032307  .00001166  00000-0  91305-4 0  9990,2 52383  53.2178  82.9942 0001716  87.6533 272.4655 15.08846237 98237,6917.861,95.437,540.913,538.539,0.0
52383.0,STARLINK-3811,PAYLOAD,2024-01-19 13:51:57,15.08856838,0.000175,53.2172,81.207,112.8619,247.2558,7.3234e-05,8.78e-06,0.0,0 STARLINK-3811,1 52383U 22045BE  24019.57775277  .00000878  00000-0  73234-4 0  9993,2 52383  53.2172  81.2070 0001750 112.8619 247.2558 15.08856838 98295,6917.829,95.436,540.905,538.483,0.0
52383.0,STARLINK-3811,PAYLOAD,2024-01-19 23:24:17,15.08846011,0.000194,53.2154,79.4169,136.2988,223.8158,-5.3221e-05,-1.135e-05,0.0,0 STARLINK-3811,1 52383U 22045BE  24019.97520107 -.00001135  00000-0 -53221-4 0  9990,2 52383  53.2154  79.4169 0001940 136.2988 223.8158 15.08846011 98358,6917.862,95.437,541.069,538.385,0.0
52383.0,STARLINK-3811,PAYLOAD,2024-01-20 10:32:00,15.08834375,0.0001565,53.2171,77.3439,97.3528,262.7642,-2.4585e-05,-6.79e-06,0.0,0 STARLINK-3811,1 52383U 22045BE  24020.43889095 -.00000679  00000-0 -24585-4 0  9990,2 52383  53.2171  77.3439 0001565  97.3528 262.7642 15.08834375 98422,6917.898,95.438,540.845,538.68,0.0
52383.0,STARLINK-3811,PAYLOAD,2024-01-20 23:15:05,15.08838371,0.0001392,53.217,74.9639,90.6645,269.4507,-7.9799e-06,-4.15e-06,0.0,0 STARLINK-3811,1 52383U 22045BE  24020.96880954 -.00000415  00000-0 -79799-5 0  9999,2 52383  53.2170  74.9639 0001392  90.6645 269.4507 15.08838371 98503,6917.885,95.438,540.713,538.787,0.0
52383.0,STARLINK-3811,PAYLOAD,2024-01-21 10:22:46,15.08844565,0.0001527,53.2172,72.8833,96.8765,263.2401,7.5988e-05,9.22e-06,0.0,0 STARLINK-3811,1 52383U 22045BE  24021.43248462  .00000922  00000-0  75988-4 0  9990,2 52383  53.2172  72.8833 0001527  96.8765 263.2401 15.08844565 98573,6917.866,95.437,540.788,538.675,0.0
52383.0,STARLINK-3811,PAYLOAD,2024-01-22 07:02:48,15.0883244,0.0001873,53.2187,69.0208,117.7718,242.3465,0.00014806,2.069e-05,0.0,0 STARLINK-3811,1 52383U 22045BE  24022.29361264  .00002069  00000-0  14806-3 0  9996,2 52383  53.2187  69.0208 0001873 117.7718 242.3465 15.08832440 98700,6917.903,95.438,541.064,538.473,0.0
52383.0,STARLINK-3811,PAYLOAD,2024-01-22 08:38:11,15.08833128,0.000189,53.2185,68.7232,117.5006,242.6178,0.00015222,2.135e-05,0.0,0 STARLINK-3811,1 52383U 22045BE  24022.35985255  .00002135  00000-0  15222-3 0  9992,2 52383  53.2185  68.7232 0001890 117.5006 242.6178 15.08833128 98717,6917.901,95.438,541.074,538.459,0.0
52383.0,STARLINK-3811,PAYLOAD,2024-01-23 06:53:34,15.08841644,0.0001953,53.2187,64.56,121.6109,238.5074,9.3022e-05,1.193e-05,0.0,0 STARLINK-3811,1 52383U 22045BE  24023.28721002  .00001193  00000-0  93022-4 0  9991,2 52383  53.2187  64.5600 0001953 121.6109 238.5074 15.08841644 98858,6917.875,95.437,541.091,538.389,0.0
52383.0,STARLINK-3811,PAYLOAD,2024-01-23 10:04:21,15.0884378,0.0001537,53.2172,63.962,100.4563,259.6603,0.00016165,2.286e-05,0.0,0 STARLINK-3811,1 52383U 22045BE  24023.41968810  .00002286  00000-0  16165-3 0  9992,2 52383  53.2172  63.9620 0001537 100.4563 259.6603 15.08843780 98871,6917.869,95.437,540.797,538.671,0.0
52383.0,STARLINK-3811,PAYLOAD,2024-01-24 09:55:08,15.08839377,0.0001605,53.2179,59.4994,88.6993,271.4183,9.2678e-05,1.187e-05,0.0,0 STARLINK-3811,1 52383U 22045BE  24024.41329585  .00001187  00000-0  92678-4 0  9996,2 52383  53.2179  59.4994 0001605  88.6993 271.4183 15.08839377 99022,6917.882,95.438,540.858,538.637,0.0
52383.0,STARLINK-3811,PAYLOAD,2024-01-25 08:10:32,15.08845075,0.000187,53.2184,55.335,75.3797,284.7402,6.8833e-05,8.08e-06,0.0,0 STARLINK-3811,1 52383U 22045BE  24025.34065561  .00000808  00000-0  68833-4 0  9995,2 52383  53.2184  55.3350 0001870  75.3797 284.7402 15.08845075 99166,6917.865,95.437,541.024,538.436,0.0
52383.0,STARLINK-3811,PAYLOAD,2024-01-26 08:01:19,15.08846681,0.0001888,53.2185,50.8796,78.8355,281.2849,0.00015496,2.179e-05,0.0,0 STARLINK-3811,1 52383U 22045BE  24026.33425301  .00002179  00000-0  15496-3 0  9996,2 52383  53.2185  50.8796 0001888  78.8355 281.2849 15.08846681 99316,6917.86,95.437,541.031,538.419,0.0
52383.0,STARLINK-3811,PAYLOAD,2024-01-27 11:02:53,15.08838875,0.0001709,53.2184,45.8178,94.4361,265.6826,-9.1247e-06,-4.33e-06,0.0,0 STARLINK-3811,1 52383U 22045BE  24027.46033962 -.00000433  00000-0 -91247-5 0  9992,2 52383  53.2184  45.8178 0001709  94.4361 265.6826 15.08838875 99481,6917.884,95.438,540.931,538.567,0.0
52383.0,STARLINK-3811,PAYLOAD,2024-01-27 20:35:12,15.0884171,0.0001505,53.2175,44.0352,88.9897,271.1267,-2.0616e-05,-6.16e-06,0.0,0 STARLINK-3811,1 52383U 22045BE  24027.85777873 -.00000616  00000-0 -20616-4 0  9995,2 52383  53.2175  44.0352 0001505  88.9897 271.1267 15.08841710 99542,6917.875,95.437,540.781,538.699,0.0
52383.0,STARLINK-3811,PAYLOAD,2024-01-28 10:53:39,15.08849892,0.0001633,53.2173,41.3586,96.4968,263.621,-3.6582e-05,-8.7e-06,0.0,0 STARLINK-3811,1 52383U 22045BE  24028.45393347 -.00000870  00000-0 -36582-4 0  9993,2 52383  53.2173  41.3586 0001633  96.4968 263.6210 15.08849892 99637,6917.85,95.437,540.845,538.585,0.0
52383.0,STARLINK-3811,PAYLOAD,2024-01-29 01:12:08,15.08838404,0.0001663,53.2171,38.6815,106.0318,254.0858,4.6156e-05,4.47e-06,0.0,0 STARLINK-3811,1 52383U 22045BE  24029.05009969  .00000447  00000-0  46156-4 0  9990,2 52383  53.2171  38.6815 0001663 106.0318 254.0858 15.08838404 99728,6917.885,95.438,540.901,538.6,0.0
52383.0,STARLINK-3811,PAYLOAD,2024-01-29 05:58:17,15.08839738,0.0001669,53.2182,37.7895,99.8081,260.31,8.6448e-05,1.088e-05,0.0,0 STARLINK-3811,1 52383U 22045BE  24029.24881824  .00001088  00000-0  86448-4 0  9999,2 52383  53.2182  37.7895 0001669  99.8081 260.3100 15.08839738 99754,6917.881,95.438,540.901,538.592,0.0
52383.0,STARLINK-3811,PAYLOAD,2024-01-30 04:13:42,15.08835838,0.0001676,53.2179,33.6254,109.0934,251.024,5.2908e-05,5.54e-06,0.0,0 STARLINK-3811,1 52383U 22045BE  24030.17618284  .00000554  00000-0  52908-4 0  9992,2 52383  53.2179  33.6254 0001676 109.0934 251.0240 15.08835838 99897,6917.893,95.438,540.918,538.599,0.0
52383.0,STARLINK-3811,PAYLOAD,2024-01-30 05:49:05,15.0883637,0.0001492,53.2182,33.3281,101.0317,259.0843,5.7904e-05,6.34e-06,0.0,0 STARLINK-3811,1 52383U 22045BE  24030.24242277  .00000634  00000-0  57904-4 0  9995,2 52383  53.2182  33.3281 0001492 101.0317 259.0843 15.08836370 99902,6917.891,95.438,540.789,538.724,0.0
52383.0,STARLINK-3811,PAYLOAD,2024-01-30 23:18:20,15.08833685,0.0001709,53.2179,30.0599,100.948,259.1705,0.00010845,1.438e-05,0.0,0 STARLINK-3811,1 52383U 22045BE  24030.97106523  .00001438  00000-0  10845-3 0  9993,2 52383  53.2179  30.0599 0001709 100.9480 259.1705 15.08833685100013,6917.9,95.438,540.947,538.582,0.0
52383.0,STARLINK-3811,PAYLOAD,2024-01-31 07:15:15,15.0884454,0.0001573,53.2177,28.5743,87.6632,272.454,8.79e-05,1.111e-05,0.0,0 STARLINK-3811,1 52383U 22045BE  24031.30225884  .00001111  00000-0  87900-4 0  9998,2 52383  53.2177  28.5743 0001573  87.6632 272.4540 15.08844540100065,6917.867,95.437,540.82,538.643,0.0
52383.0,STARLINK-3811,PAYLOAD,2024-01-31 23:09:07,15.08838156,0.0001861,53.218,25.6022,70.4957,289.6236,6.3239e-05,7.18e-06,0.0,0 STARLINK-3811,1 52383U 22045BE  24031.96466541  .00000718  00000-0  63239-4 0  9998,2 52383  53.2180  25.6022 0001861  70.4957 289.6236 15.08838156100166,6917.886,95.438,541.038,538.464,0.0
52383.0,STARLINK-3811,PAYLOAD,2024-02-01 03:55:16,15.08834951,0.0001861,53.2181,24.7091,70.6228,289.4966,3.6153e-05,2.87e-06,0.0,0 STARLINK-3811,1 52383U 22045BE  24032.16338901  .00000287  00000-0  36153-4 0  9995,2 52383  53.2181  24.7091 0001861  70.6228 289.4966 15.08834951100196,6917.896,95.438,541.048,538.473,0.0
52383.0,STARLINK-3811,PAYLOAD,2024-02-01 08:41:25,15.08837551,0.0001521,53.2178,23.8147,89.894,270.2226,4.6781e-05,4.57e-06,0.0,0 STARLINK-3811,1 52383U 22045BE  24032.36210560  .00000457  00000-0  46781-4 0  9994,2 52383  53.2178  23.8147 0001521  89.8940 270.2226 15.08837551100220,6917.888,95.438,540.805,538.701,0.0
52383.0,STARLINK-3811,PAYLOAD,2024-02-02 03:46:03,15.08842776,0.0001501,53.2177,20.246,91.2201,268.8964,1.4846e-05,-5.2e-07,0.0,0 STARLINK-3811,1 52383U 22045BE  24033.15698406 -.00000052  00000-0  14846-4 0  9990,2 52383  53.2177  20.2460 0001501  91.2201 268.8964 15.08842776100343,6917.872,95.437,540.775,538.699,0.0
52383.0,STARLINK-3811,PAYLOAD,2024-02-02 05:21:26,15.08843629,0.0001543,53.2177,19.9489,86.2603,273.8566,2.6174e-05,1.29e-06,0.0,0 STARLINK-3811,1 52383U 22045BE  24033.22322345  .00000129  00000-0  26174-4 0  9995,2 52383  53.2177  19.9489 0001543  86.2603 273.8566 15.08843629100358,6917.869,95.437,540.802,538.667,0.0
52383.0,STARLINK-3811,PAYLOAD,2024-02-03 08:22:59,15.08844682,0.0001467,53.2174,14.8928,86.1182,273.9978,9.7752e-05,1.268e-05,0.0,0 STARLINK-3811,1 52383U 22045BE  24034.34929992  .00001268  00000-0  97752-4 0  9995,2 52383  53.2174  14.8928 0001467  86.1182 273.9978 15.08844682100520,6917.866,95.437,540.746,538.716,0.0
52383.0,STARLINK-3811,PAYLOAD,2024-02-04 03:27:37,15.08840586,0.0001712,53.219,11.3209,110.4071,249.7105,2.1064e-05,4.7e-07,0.0,0 STARLINK-3811,1 52383U 22045BE  24035.14418286  .00000047  00000-0  21064-4 0  9990,2 52383  53.2190  11.3209 0001712 110.4071 249.7105 15.08840586100648,6917.879,95.438,540.928,538.559,0.0
52383.0,STARLINK-3811,PAYLOAD,2024-02-04 08:13:46,15.08843889,0.0001447,53.2185,10.43,106.1436,253.9716,5.3369e-05,5.62e-06,0.0,0 STARLINK-3811,1 52383U 22045BE  24035.34290040  .00000562  00000-0  53369-4 0  9993,2 52383  53.2185  10.4300 0001447 106.1436 253.9716 15.08843889100673,6917.869,95.437,540.735,538.732,0.0
